{"type":"FeatureCollection","features":[{"type":"Feature","properties":{},"geometry":{"type":"Polygon","coordinates":[[[-74.028028,40.727857],[-74.031929,40.714181],[-74.045,40.70321676429809],[-74.045,40.74],[-74.0219530779907,40.74],[-74.028028,40.727857]]]}},{"type":"Feature","properties":{},"geometry":{"type":"Polygon","coordinates":[[[-74.001879,40.690127],[-73.997697,40.696087],[-73.99059,40.699774],[-73.980336,40.704617],[-73.98,40.704743202345234],[-73.98,40.69],[-74.00201916067516,40.69],[-74.001879,40.690127]]]}},{"type":"Feature","properties":{},"geometry":{"type":"Polygon","coordinates":[[[-74.002227,40.704047],[-74.016916,40.699286],[-74.011977,40.730038],[-74.00857496523827,40.74],[-73.98,40.74],[-73.98,40.71243102339049],[-74.002227,40.704047]]]}}]}